{"type": "FeatureCollection", "features": [ {"type": "Feature", "properties": {"norad_id": 36402, "name": "COSMOS 2460 (732)", "group": "gnss", "lat": 12.865702885499124, "lon": -33.13220638611882, "alt_km": 19129.574572671892, "timestamp": "2025-12-08T15:42:50.032615+00:00", "meta": {"OBJECT_NAME": "COSMOS 2460 (732)", "OBJECT_ID": "2010-007C", "EPOCH": "2025-12-08T05:41:00.073824", "MEAN_MOTION": 2.13106068, "ECCENTRICITY": 0.00026932, "INCLINATION": 65.5322, "RA_OF_ASC_NODE": 320.9255, "ARG_OF_PERICENTER": 274.5439, "MEAN_ANOMALY": 138.949, "EPHEMERIS_TYPE": 0, "CLASSIFICATION_TYPE": "U", "NORAD_CAT_ID": 36402, "ELEMENT_SET_NO": 999, "REV_AT_EPOCH": 12266, "BSTAR": 0, "MEAN_MOTION_DOT": -4.9e-07, "MEAN_MOTION_DDOT": 0}, "tle": {"line1": "1 36402U 10007C   25342.23680641 -.00000049  00000+0  00000+0 0  9991", "line2": "2 36402  65.5322 320.9255 0002693 274.5439 138.9490  2.13106068122668"}}, "geometry": {"type": "Point", "coordinates": [-33.13220638611882, 12.865702885499124]}}, {"type": "Feature", "properties": {"norad_id": 36585, "name": "GPS BIIF-1  (PRN 25)", "group": "gnss", "lat": 47.13016563522821, "lon": -14.480304817928442, "alt_km": 19962.141531587444, "timestamp": "2025-12-08T15:42:50.032627+00:00", "meta": {"OBJECT_NAME": "GPS BIIF-1  (PRN 25)", "OBJECT_ID": "2010-022A", "EPOCH": "2025-12-08T05:43:48.381888", "MEAN_MOTION": 2.00552915, "ECCENTRICITY": 0.01259265, "INCLINATION": 54.3009, "RA_OF_ASC_NODE": 216.2555, "ARG_OF_PERICENTER": 65.0249, "MEAN_ANOMALY": 109.07, "EPHEMERIS_TYPE": 0, "CLASSIFICATION_TYPE": "U", "NORAD_CAT_ID": 36585, "ELEMENT_SET_NO": 999, "REV_AT_EPOCH": 11376, "BSTAR": 0, "MEAN_MOTION_DOT": 2.3e-07, "MEAN_MOTION_DDOT": 0}, "tle": {"line1": "1 36585U 10022A   25342.23875442  .00000023  00000+0  00000+0 0  9996", "line2": "2 36585  54.3009 216.2555 0125926  65.0249 109.0700  2.00552915113761"}}, "geometry": {"type": "Point", "coordinates": [-14.480304817928442, 47.13016563522821]}}, {"type": "Feature", "properties": {"norad_id": 36828, "name": "BEIDOU-2 IGSO-1 (C06)", "group": "gnss", "lat": -52.2173378837118, "lon": 53.00630996773476, "alt_km": 35627.38383085776, "timestamp": "2025-12-08T15:42:50.032639+00:00", "meta": {"OBJECT_NAME": "BEIDOU-2 IGSO-1 (C06)", "OBJECT_ID": "2010-036A", "EPOCH": "2025-12-07T22:42:27.537984", "MEAN_MOTION": 1.00277452, "ECCENTRICITY": 0.00512392, "INCLINATION": 54.2867, "RA_OF_ASC_NODE": 164.691, "ARG_OF_PERICENTER": 215.8688, "MEAN_ANOMALY": 144.8467, "EPHEMERIS_TYPE": 0, "CLASSIFICATION_TYPE": "U", "NORAD_CAT_ID": 36828, "ELEMENT_SET_NO": 999, "REV_AT_EPOCH": 5618, "BSTAR": 0, "MEAN_MOTION_DOT": -6.8e-07, "MEAN_MOTION_DDOT": 0}, "tle": {"line1": "1 36828U 10036A   25341.94615206 -.00000068  00000+0  00000+0 0  9998", "line2": "2 36828  54.2867 164.6910 0051239 215.8688 144.8467  1.00277452 56188"}}, "geometry": {"type": "Point", "coordinates": [53.00630996773476, -52.2173378837118]}}, {"type": "Feature", "properties": {"norad_id": 37210, "name": "BEIDOU-2 G4 (C04)", "group": "gnss", "lat": 2.199297434698985, "lon": 113.32722444692872, "alt_km": 35824.55493370381, "timestamp": "2025-12-08T15:42:50.032652+00:00", "meta": {"OBJECT_NAME": "BEIDOU-2 G4 (C04)", "OBJECT_ID": "2010-057A", "EPOCH": "2025-12-08T05:48:19.884384", "MEAN_MOTION": 1.00271476, "ECCENTRICITY": 0.00109061, "INCLINATION": 3.1733, "RA_OF_ASC_NODE": 69.9493, "ARG_OF_PERICENTER": 190.2714, "MEAN_ANOMALY": 64.1886, "EPHEMERIS_TYPE": 0, "CLASSIFICATION_TYPE": "U", "NORAD_CAT_ID": 37210, "ELEMENT_SET_NO": 999, "REV_AT_EPOCH": 5537, "BSTAR": 0, "MEAN_MOTION_DOT": -1.1e-06, "MEAN_MOTION_DDOT": 0}, "tle": {"line1": "1 37210U 10057A   25342.24189681 -.00000110  00000+0  00000+0 0  9992", "line2": "2 37210   3.1733  69.9493 0010906 190.2714  64.1886  1.00271476 55373"}}, "geometry": {"type": "Point", "coordinates": [113.32722444692872, 2.199297434698985]}}, {"type": "Feature", "properties": {"norad_id": 37256, "name": "BEIDOU-2 IGSO-2 (C07)", "group": "gnss", "lat": 24.470003169453626, "lon": 69.92737215536523, "alt_km": 35707.229564657064, "timestamp": "2025-12-08T15:42:50.032665+00:00", "meta": {"OBJECT_NAME": "BEIDOU-2 IGSO-2 (C07)", "OBJECT_ID": "2010-068A", "EPOCH": "2025-12-03T17:22:36.030432", "MEAN_MOTION": 1.0028871, "ECCENTRICITY": 0.00492335, "INCLINATION": 47.9043, "RA_OF_ASC_NODE": 274.2613, "ARG_OF_PERICENTER": 216.1442, "MEAN_ANOMALY": 310.2369, "EPHEMERIS_TYPE": 0, "CLASSIFICATION_TYPE": "U", "NORAD_CAT_ID": 37256, "ELEMENT_SET_NO": 999, "REV_AT_EPOCH": 5483, "BSTAR": 0, "MEAN_MOTION_DOT": -2.25e-06, "MEAN_MOTION_DDOT": 0}, "tle": {"line1": "1 37256U 10068A   25337.72402813 -.00000225  00000+0  00000+0 0  9993", "line2": "2 37256  47.9043 274.2613 0049233 216.1442 310.2369  1.00288710 54839"}}, "geometry": {"type": "Point", "coordinates": [69.92737215536523, 24.470003169453626]}}, {"type": "Feature", "properties": {"norad_id": 37384, "name": "BEIDOU-2 IGSO-3 (C08)", "group": "gnss", "lat": 16.626333047251336, "lon": 51.065484830235924, "alt_km": 35930.88060780587, "timestamp": "2025-12-08T15:42:50.032677+00:00", "meta": {"OBJECT_NAME": "BEIDOU-2 IGSO-3 (C08)", "OBJECT_ID": "2011-013A", "EPOCH": "2025-12-07T14:00:04.361184", "MEAN_MOTION": 1.00271436, "ECCENTRICITY": 0.0035334, "INCLINATION": 62.1366, "RA_OF_ASC_NODE": 41.9657, "ARG_OF_PERICENTER": 187.0582, "MEAN_ANOMALY": 165.2458, "EPHEMERIS_TYPE": 0, "CLASSIFICATION_TYPE": "U", "NORAD_CAT_ID": 37384, "ELEMENT_SET_NO": 999, "REV_AT_EPOCH": 5373, "BSTAR": 0, "MEAN_MOTION_DOT": -1.91e-06, "MEAN_MOTION_DDOT": 0}, "tle": {"line1": "1 37384U 11013A   25341.58338381 -.00000191  00000+0  00000+0 0  9995", "line2": "2 37384  62.1366  41.9657 0035334 187.0582 165.2458  1.00271436 53735"}}, "geometry": {"type": "Point", "coordinates": [51.065484830235924, 16.626333047251336]}}, {"type": "Feature", "properties": {"norad_id": 37605, "name": "GSAT-8 (GAGAN/PRN 127)", "group": "gnss", "lat": -1.5788175735236507, "lon": 8.566781092421616, "alt_km": 35795.21805524694, "timestamp": "2025-12-08T15:42:50.032690+00:00", "meta": {"OBJECT_NAME": "GSAT-8 (GAGAN/PRN 127)", "OBJECT_ID": "2011-022A", "EPOCH": "2025-12-08T03:35:32.601696", "MEAN_MOTION": 1.00270857, "ECCENTRICITY": 0.00089908, "INCLINATION": 1.6376, "RA_OF_ASC_NODE": 84.2376, "ARG_OF_PERICENTER": 181.0863, "MEAN_ANOMALY": 280.8197, "EPHEMERIS_TYPE": 0, "CLASSIFICATION_TYPE": "U", "NORAD_CAT_ID": 37605, "ELEMENT_SET_NO": 999, "REV_AT_EPOCH": 5130, "BSTAR": 0, "MEAN_MOTION_DOT": 8.7e-07, "MEAN_MOTION_DDOT": 0}, "tle": {"line1": "1 37605U 11022A   25342.14968289  .00000087  00000+0  00000+0 0  9993", "line2": "2 37605   1.6376  84.2376 0008990 181.0863 280.8197  1.00270857 51303"}}, "geometry": {"type": "Point", "coordinates": [8.566781092421616, -1.5788175735236507]}}, {"type": "Feature", "properties": {"norad_id": 37763, "name": "BEIDOU-2 IGSO-4 (C09)", "group": "gnss", "lat": -45.172315280315985, "lon": 33.18116301415334, "alt_km": 35170.026715271095, "timestamp": "2025-12-08T15:42:50.032703+00:00", "meta": {"OBJECT_NAME": "BEIDOU-2 IGSO-4 (C09)", "OBJECT_ID": "2011-038A", "EPOCH": "2025-12-01T12:32:09.960864", "MEAN_MOTION": 1.00284074, "ECCENTRICITY": 0.01487808, "INCLINATION": 54.5808, "RA_OF_ASC_NODE": 167.4476, "ARG_OF_PERICENTER": 230.2031, "MEAN_ANOMALY": 315.0387, "EPHEMERIS_TYPE": 0, "CLASSIFICATION_TYPE": "U", "NORAD_CAT_ID": 37763, "ELEMENT_SET_NO": 999, "REV_AT_EPOCH": 5266, "BSTAR": 0, "MEAN_MOTION_DOT": 1.01e-06, "MEAN_MOTION_DDOT": 0}, "tle": {"line1": "1 37763U 11038A   25335.52233751  .00000101  00000+0  00000+0 0  9995", "line2": "2 37763  54.5808 167.4476 0148780 230.2031 315.0387  1.00284074 52664"}}, "geometry": {"type": "Point", "coordinates": [33.18116301415334, -45.172315280315985]}}, {"type": "Feature", "properties": {"norad_id": 37846, "name": "GSAT0101 (GALILEO-PFM)", "group": "gnss", "lat": -56.81617281824507, "lon": -95.69883064082856, "alt_km": 23221.29039680047, "timestamp": "2025-12-08T15:42:50.032717+00:00", "meta": {"OBJECT_NAME": "GSAT0101 (GALILEO-PFM)", "OBJECT_ID": "2011-060A", "EPOCH": "2025-12-06T10:45:46.943136", "MEAN_MOTION": 1.70475516, "ECCENTRICITY": 0.00028809, "INCLINATION": 57.0541, "RA_OF_ASC_NODE": 346.9907, "ARG_OF_PERICENTER": 311.6243, "MEAN_ANOMALY": 48.3737, "EPHEMERIS_TYPE": 0, "CLASSIFICATION_TYPE": "U", "NORAD_CAT_ID": 37846, "ELEMENT_SET_NO": 999, "REV_AT_EPOCH": 8783, "BSTAR": 0, "MEAN_MOTION_DOT": -8.1e-07, "MEAN_MOTION_DDOT": 0}, "tle": {"line1": "1 37846U 11060A   25340.44845999 -.00000081  00000+0  00000+0 0  9990", "line2": "2 37846  57.0541 346.9907 0002880 311.6243  48.3737  1.70475516 87832"}}, "geometry": {"type": "Point", "coordinates": [-95.69883064082856, -56.81617281824507]}}, {"type": "Feature", "properties": {"norad_id": 37847, "name": "GSAT0102 (GALILEO-FM2)", "group": "gnss", "lat": -33.013040167711516, "lon": -37.99253905312788, "alt_km": 23212.142618826038, "timestamp": "2025-12-08T15:42:50.032729+00:00", "meta": {"OBJECT_NAME": "GSAT0102 (GALILEO-FM2)", "OBJECT_ID": "2011-060B", "EPOCH": "2025-12-06T01:52:21.849024", "MEAN_MOTION": 1.7047572, "ECCENTRICITY": 0.00048425, "INCLINATION": 57.055, "RA_OF_ASC_NODE": 347.0012, "ARG_OF_PERICENTER": 307.2223, "MEAN_ANOMALY": 230.8964, "EPHEMERIS_TYPE": 0, "CLASSIFICATION_TYPE": "U", "NORAD_CAT_ID": 37847, "ELEMENT_SET_NO": 999, "REV_AT_EPOCH": 8783, "BSTAR": 0, "MEAN_MOTION_DOT": -7.9e-07, "MEAN_MOTION_DDOT": 0}, "tle": {"line1": "1 37847U 11060B   25340.07803066 -.00000079  00000+0  00000+0 0  9996", "line2": "2 37847  57.0550 347.0012 0004842 307.2223 230.8964  1.70475720 87838"}}, "geometry": {"type": "Point", "coordinates": [-37.99253905312788, -33.013040167711516]}}]}